      2.10          N: GNSS NAV DATA                        RINEX VERSION / TYPE
fic2rin                                 11/17/2024 00:59:02 PGM / RUN BY / DATE
                                                            END OF HEADER
30 24 11 16 11 59 44.0 -.280795618892D-03  .784439180279D-11  .000000000000D+00
     .620000000000D+02 -.263125000000D+02  .544701260422D-08 -.163768366387D+01
    -.144354999065D-05  .715922308154D-02  .594928860664D-05  .515376710320D+04
     .561584000000D+06  .912696123123D-07  .215200730429D+01 -.800937414169D-07
     .935204756358D+00  .250000000000D+03 -.246094058037D+01 -.830248868912D-08
    -.535736601294D-09  .100000000000D+01  .234000000000D+04  .000000000000D+00
     .240000000000D+01  .000000000000D+00  .372529029846D-08  .620000000000D+02
     .554400000000D+06  .400000000000D+01
2  24 11 16 12  0  0.0 -.313319265842D-03  .852651282912D-11  .000000000000D+00
     .870000000000D+02 -.900937500000D+02  .454661795632D-08  .143610070768D+01
    -.506080687046D-05  .164004453691D-01 -.966712832451D-06  .515368753433D+04
     .561600000000D+06  .337138772011D-06 -.107244805462D+01 -.163912773132D-06
     .966529950549D+00  .401000000000D+03 -.110046914447D+01 -.844892336014D-08
    -.198579700213D-09  .100000000000D+01  .234000000000D+04  .000000000000D+00
     .240000000000D+01  .000000000000D+00 -.176951289177D-07  .870000000000D+02
     .554400000000D+06  .400000000000D+01
5  24 11 16 12  0  0.0 -.193165615201D-03 -.113686837722D-11  .000000000000D+00
     .150000000000D+02 -.119250000000D+03  .398980904870D-08  .161416281871D+01
    -.620447099209D-05  .569989637006D-02  .113807618618D-04  .515370767975D+04
     .561600000000D+06 -.670552253723D-07  .116923347127D-01 -.139698386192D-06
     .974241331142D+00  .169281250000D+03  .133549035420D+01 -.762281752095D-08
     .223580741607D-09  .100000000000D+01  .234000000000D+04  .000000000000D+00
     .240000000000D+01  .000000000000D+00 -.107102096081D-07  .150000000000D+02
     .554400000000D+06  .400000000000D+01
6  24 11 16 12  0  0.0 -.118882860988D-03 -.292175172945D-10  .000000000000D+00
     .210000000000D+02 -.103562500000D+03  .402481050666D-08 -.604498146357D+00
    -.564567744732D-05  .327632285189D-02  .148639082909D-05  .515373185730D+04
     .561600000000D+06 -.242143869400D-07 -.970232139777D+00 -.670552253723D-07
     .989281428068D+00  .363281250000D+03 -.770908400161D+00 -.814676791701D-08
    -.142505935944D-09  .100000000000D+01  .234000000000D+04  .000000000000D+00
     .240000000000D+01  .000000000000D+00  .372529029846D-08  .210000000000D+02
     .554400000000D+06  .400000000000D+01
4  24 11 16 12  0  0.0  .480408314615D-03  .648014975013D-11  .000000000000D+00
     .142000000000D+03  .141562500000D+02  .479234247744D-08  .987249955655D+00
     .841915607452D-06  .314384058584D-02  .718422234058D-05  .515368173790D+04
     .561600000000D+06  .633299350739D-07  .114171644302D+01 -.614672899246D-07
     .965868148354D+00  .240437500000D+03 -.300218443406D+01 -.801676250177D-08
     .500020827875D-09  .100000000000D+01  .234000000000D+04  .000000000000D+00
     .240000000000D+01  .000000000000D+00 -.465661287308D-08  .142000000000D+03
     .554400000000D+06  .400000000000D+01
18 24 11 16 12  0  0.0 -.660381745547D-03 -.341060513165D-12  .000000000000D+00
     .250000000000D+02 -.114781250000D+03  .437803950578D-08 -.735174455104D+00
    -.593252480030D-05  .480287882965D-02  .120326876640D-05  .515372513008D+04
     .561600000000D+06  .260770320892D-07 -.968615514358D+00 -.745058059692D-08
     .974164852711D+00  .359031250000D+03 -.294629896216D+01 -.835141929871D-08
    -.162149611325D-09  .100000000000D+01  .234000000000D+04  .000000000000D+00
     .240000000000D+01  .000000000000D+00 -.838190317154D-08  .250000000000D+02
     .554400000000D+06  .400000000000D+01
32 24 11 16 12  0  0.0 -.572950113565D-03  .534328137292D-11  .000000000000D+00
     .160000000000D+02  .177187500000D+02  .477519890620D-08  .198691612568D+01
     .810250639915D-06  .801954395138D-02  .786036252975D-05  .515374290085D+04
     .561600000000D+06 -.126659870148D-06  .109615702373D+01 -.154599547386D-06
     .962968526224D+00  .230406250000D+03 -.213045629735D+01 -.790854370830D-08
     .651455707174D-09  .100000000000D+01  .234000000000D+04  .000000000000D+00
     .240000000000D+01  .000000000000D+00  .931322574615D-09  .160000000000D+02
     .554400000000D+06  .400000000000D+01
21 24 11 16 12  0  0.0  .973273999989D-04 -.909494701773D-12  .000000000000D+00
     .150000000000D+02 -.778125000000D+02  .470983904084D-08  .110840207230D+01
    -.436231493950D-05  .255666789599D-01 -.112876296043D-05  .515363962555D+04
     .561600000000D+06  .560656189919D-06 -.108067229626D+01  .195577740669D-06
     .960770126081D+00  .399031250000D+03 -.493169401731D+00 -.858142887953D-08
    -.270011247052D-09  .100000000000D+01  .234000000000D+04  .000000000000D+00
     .240000000000D+01  .000000000000D+00 -.102445483208D-07  .150000000000D+02
     .554400000000D+06  .400000000000D+01
19 24 11 16 12  0  0.0  .563394278288D-03  .443378667114D-11  .000000000000D+00
     .180000000000D+02  .124437500000D+03  .436768193148D-08  .310314205649D+01
     .657886266708D-05  .995543075260D-02  .150687992573D-05  .515359337425D+04
     .561600000000D+06 -.135973095894D-06 -.193107621637D+01  .119209289551D-06
     .965406508462D+00  .348343750000D+03  .268286661936D+01 -.817355474708D-08
     .343942898031D-09  .100000000000D+01  .234000000000D+04  .000000000000D+00
     .240000000000D+01  .000000000000D+00 -.153668224812D-07  .180000000000D+02
     .554400000000D+06  .400000000000D+01
12 24 11 16 12  0  0.0 -.552431680262D-03 -.250111042988D-11  .000000000000D+00
     .120000000000D+03  .103093750000D+03  .400052378073D-08 -.219913006074D+01
     .532157719135D-05  .885516824201D-02  .115931034088D-04  .515357351875D+04
     .561600000000D+06  .191852450371D-06 -.301343988292D+01  .372529029846D-08
     .961842420163D+00  .157656250000D+03  .146787195730D+01 -.749959810265D-08
    -.340371320689D-09  .100000000000D+01  .234000000000D+04  .000000000000D+00
     .240000000000D+01  .000000000000D+00 -.125728547573D-07  .120000000000D+03
     .554400000000D+06  .400000000000D+01
10 24 11 16 12  0  0.0 -.197936315089D-03 -.144382283906D-10  .000000000000D+00
     .850000000000D+02 -.134000000000D+03  .355336229752D-08 -.302354722343D+01
    -.694021582603D-05  .995472481009D-02  .128913670778D-04  .515369418144D+04
     .561600000000D+06 -.372529029846D-08  .627212082472D-01 -.154599547386D-06
     .986994157114D+00  .145531250000D+03 -.236095218506D+01 -.727173146823D-08
     .309298597814D-09  .100000000000D+01  .234000000000D+04  .000000000000D+00
     .240000000000D+01  .000000000000D+00  .232830643654D-08  .850000000000D+02
     .554400000000D+06  .400000000000D+01
13 24 11 16 12  0  0.0  .686250627041D-03  .159161572810D-11  .000000000000D+00
     .154000000000D+03  .220000000000D+02  .479662837025D-08  .987777637521D+00
     .126846134663D-05  .876970752142D-02  .685267150402D-05  .515367962265D+04
     .561600000000D+06 -.838190317154D-07  .124939783151D+01  .145286321640D-06
     .972088669132D+00  .254375000000D+03  .973630052285D+00 -.814319633967D-08
     .419660337680D-09  .100000000000D+01  .234000000000D+04  .000000000000D+00
     .240000000000D+01  .000000000000D+00 -.116415321827D-07  .154000000000D+03
     .554400000000D+06  .400000000000D+01
9  24 11 16 12  0  0.0  .446152873337D-03  .170530256582D-10  .000000000000D+00
     .910000000000D+02  .147187500000D+02  .480912889095D-08  .183304445204D+01
     .704079866409D-06  .319028343074D-02  .765547156334D-05  .515355588531D+04
     .561600000000D+06  .242143869400D-07  .108085291983D+01 -.819563865662D-07
     .959662574210D+00  .227093750000D+03  .201251765435D+01 -.795247410961D-08
     .544308386915D-09  .100000000000D+01  .234000000000D+04  .000000000000D+00
     .240000000000D+01  .000000000000D+00  .465661287308D-09  .910000000000D+02
     .554400000000D+06  .400000000000D+01
8  24 11 16 12  0  0.0  .415006186813D-03  .102318153949D-10  .000000000000D+00
     .940000000000D+02  .159343750000D+03  .466305137766D-08  .130123008552D+01
     .832416117191D-05  .994866888504D-02  .319816172123D-05  .515371967888D+04
     .561600000000D+06 -.651925802231D-07 -.207278774775D+01  .633299350739D-07
     .950514766058D+00  .310656250000D+03  .379158101297D+00 -.851356891003D-08
     .224295057075D-09  .100000000000D+01  .234000000000D+04  .000000000000D+00
     .340000000000D+01  .000000000000D+00  .465661287308D-08  .940000000000D+02
     .554400000000D+06  .400000000000D+01
11 24 11 16 12  0  0.0 -.750286970288D-03 -.159161572810D-11  .000000000000D+00
     .560000000000D+02 -.106687500000D+03  .451733102211D-08  .395764421725D+00
    -.570900738239D-05  .176903395914D-02  .184960663319D-05  .515357653046D+04
     .561600000000D+06 -.931322574615D-08 -.941011208414D+00 -.931322574615D-08
     .965953334074D+00  .348218750000D+03 -.240070691510D+01 -.836784855448D-08
    -.187507810453D-09  .100000000000D+01  .234000000000D+04  .000000000000D+00
     .240000000000D+01  .000000000000D+00 -.884756445885D-08  .568000000000D+03
     .554400000000D+06  .400000000000D+01
28 24 11 16 12  0  0.0 -.480630435050D-03 -.117097442853D-10  .000000000000D+00
     .680000000000D+02 -.188125000000D+02  .488698927701D-08 -.268436064786D+01
    -.946223735809D-06  .466688885354D-03  .638514757156D-05  .515374668884D+04
     .561600000000D+06  .242143869400D-07  .212286465514D+01  .372529029846D-07
     .961079354779D+00  .257656250000D+03  .141382835485D+01 -.804319217410D-08
    -.591096050095D-09  .100000000000D+01  .234000000000D+04  .000000000000D+00
     .240000000000D+01  .000000000000D+00 -.931322574615D-08  .680000000000D+02
     .554400000000D+06  .400000000000D+01
